NORAD_CAT_ID,OBJECT_NAME,OBJECT_TYPE,EPOCH,MEAN_MOTION,ECCENTRICITY,INCLINATION,RA_OF_ASC_NODE,ARG_OF_PERICENTER,MEAN_ANOMALY,BSTAR,MEAN_MOTION_DOT,MEAN_MOTION_DDOT,TLE_LINE0,TLE_LINE1,TLE_LINE2,SEMIMAJOR_AXIS,PERIOD,APOGEE,PERIGEE,DECAYED
53552.0,STARLINK-4495,PAYLOAD,2022-08-24 14:00:01,15.89992994,0.0039403,53.2174,131.3967,56.145,43.0466,-0.0039235999999999,-0.01288605,0.00047577,0 STARLINK-4495,1 53552U 22101AB  22236.58334491 -.01288605  47577-3 -39236-2 0  9998,2 53552  53.2174 131.3967 0039403  56.1450  43.0466 15.89992994   776,6680.439,90.566,328.6269999999999,275.982,0.0
53552.0,STARLINK-4495,PAYLOAD,2022-08-25 04:00:00,15.88499553,0.003322,53.2173,128.4435,57.6191,140.9371,-0.0045017,-0.01340669,0.00050428,0 STARLINK-4495,1 53552U 22101AB  22237.16667824 -.01340669  50428-3 -45017-2 0  9994,2 53552  53.2173 128.4435 0033220  57.6191 140.9371 15.88499553   865,6684.626,90.652,328.69699999999995,284.285,0.0
53552.0,STARLINK-4495,PAYLOAD,2022-08-25 12:00:00,15.87643912,0.0029486,53.2175,126.7552,57.86,247.4739,-0.0048432,-0.0136685,0.00051827,0 STARLINK-4495,1 53552U 22101AB  22237.50001157 -.01366850  51827-3 -48432-2 0  9991,2 53552  53.2175 126.7552 0029486  57.8600 247.4739 15.87643912   910,6687.026999999999,90.7,328.61,289.175,0.0
53552.0,STARLINK-4495,PAYLOAD,2022-08-25 14:00:01,15.87393065,0.0028723,53.2174,126.3333,57.4358,4.4428,-0.0046636,-0.01297969,0.00047057,0 STARLINK-4495,1 53552U 22101AB  22237.58334491 -.01297969  47057-3 -46636-2 0  9997,2 53552  53.2174 126.3333 0028723  57.4358   4.4428 15.87393065  1302,6687.732,90.715,328.806,290.388,0.0
53552.0,STARLINK-4495,PAYLOAD,2022-08-25 18:00:00,15.86978707,0.0026496,53.2175,125.4921,57.7884,236.9527,-0.0049546,-0.01343131,0.00049894,0 STARLINK-4495,1 53552U 22101AB  22237.75001157 -.01343131  49894-3 -49546-2 0  9993,2 53552  53.2175 125.4921 0026496  57.7884 236.9527 15.86978707   951,6688.896,90.738,328.4840000000001,293.038,0.0
53552.0,STARLINK-4495,PAYLOAD,2022-08-25 22:00:00,15.86540637,0.002496,53.2176,124.6516,56.8077,110.5408,-0.0050263,-0.01328992,0.00048747,0 STARLINK-4495,1 53552U 22101AB  22237.91667824 -.01328992  48747-3 -50263-2 0  9992,2 53552  53.2176 124.6516 0024960  56.8077 110.5408 15.86540637  1303,6690.127,90.764,328.691,295.2940000000001,0.0
53552.0,STARLINK-4495,PAYLOAD,2022-08-26 12:00:00,15.85044087,0.0019160999999999,53.2174,121.7096,57.6579,201.7577,-0.0056583999999999,-0.01212037,0.0,0 STARLINK-4495,1 53552U 22101AB  22238.50001157 -.01212037  00000-0 -56584-2 0  9990,2 53552  53.2174 121.7096 0019161  57.6579 201.7577 15.85044087  1076,6694.3380000000025,90.849,329.03,303.376,0.0
53552.0,STARLINK-4495,PAYLOAD,2022-08-26 14:00:01,15.84801674,0.0018254,53.2172,121.2894,56.8238,318.4175,-0.0055203999999999,-0.01171811,0.0,0 STARLINK-4495,1 53552U 22101AB  22238.58335648 -.01171811  00000-0 -55204-2 0  9995,2 53552  53.2172 121.2894 0018254  56.8238 318.4175 15.84801674  1308,6695.02,90.863,329.106,304.664,0.0
53552.0,STARLINK-4495,PAYLOAD,2022-08-26 22:00:00,15.83926384,0.001526,53.2172,119.6144,55.9747,61.5487,-0.0057016,-0.01155582,0.0,0 STARLINK-4495,1 53552U 22101AB  22238.91667824 -.01155582  00000-0 -57016-2 0  9996,2 53552  53.2172 119.6144 0015260  55.9747  61.5487 15.83926384  1303,6697.486,90.913,329.57199999999995,309.131,0.0
53552.0,STARLINK-4495,PAYLOAD,2022-08-27 14:00:01,15.82216038,0.0008745,53.2175,116.2648,52.6691,266.4129,-0.0064846999999999,-0.01217321,0.0,0 STARLINK-4495,1 53552U 22101AB  22239.58334491 -.01217321  00000-0 -64847-2 0  9991,2 53552  53.2175 116.2648 0008745  52.6691 266.4129 15.82216038  1306,6702.312,91.012,330.038,318.316,0.0
53552.0,STARLINK-4495,PAYLOAD,2022-08-27 20:00:01,15.81569467,0.000676,53.2176,115.0133,45.0315,258.5593,-0.006729,-0.01222189,0.0,0 STARLINK-4495,1 53552U 22101AB  22239.83334491 -.01222189  00000-0 -67290-2 0  9992,2 53552  53.2176 115.0133 0006760  45.0315 258.5593 15.81569467  1287,6704.139,91.049,330.536,321.472,0.0
53552.0,STARLINK-4495,PAYLOAD,2022-08-27 22:00:00,15.81325976,0.000615,53.2176,114.5963,40.3135,17.9928,-0.0065285,-0.01177052,0.0,0 STARLINK-4495,1 53552U 22101AB  22239.91667824 -.01177052  00000-0 -65285-2 0  9990,2 53552  53.2176 114.5963 0006150  40.3135  17.9928 15.81325976  1300,6704.8269999999975,91.063,330.815,322.568,0.0
53552.0,STARLINK-4495,PAYLOAD,2022-08-28 14:00:01,15.79604404,0.000292,53.2172,111.2595,11.3847,242.2254,-0.007239,-0.01199268,0.0,0 STARLINK-4495,1 53552U 22101AB  22240.58334491 -.01199268  00000-0 -72390-2 0  9994,2 53552  53.2172 111.2595 0002920  11.3847 242.2254 15.79604404  1308,6709.698,91.162,333.522,329.603,0.0
53552.0,STARLINK-4495,PAYLOAD,2022-08-28 20:00:01,15.78949085,0.0002907999999999,53.2174,110.0129,9.921,225.8547,-0.0074116,-0.01192337,0.0,0 STARLINK-4495,1 53552U 22101AB  22240.83334491 -.01192337  00000-0 -74116-2 0  9990,2 53552  53.2174 110.0129 0002908   9.9210 225.8547 15.78949085  1446,6711.554,91.2,335.371,331.467,0.0
53552.0,STARLINK-4495,PAYLOAD,2022-08-28 22:00:00,15.78736538,0.0003008,53.2173,109.5974,7.2114,342.4866,-0.0075282,-0.01198669,0.0,0 STARLINK-4495,1 53552U 22101AB  22240.91667824 -.01198669  00000-0 -75282-2 0  9997,2 53552  53.2173 109.5974 0003008   7.2114 342.4866 15.78736538  1304,6712.156,91.212,336.04,332.0019999999999,0.0
53552.0,STARLINK-4495,PAYLOAD,2022-08-29 12:00:00,15.77222661,0.0003494,53.2176,106.6885,337.1019,88.2419,-0.0081243,-0.01207105,0.0,0 STARLINK-4495,1 53552U 22101AB  22241.50001157 -.01207105  00000-0 -81243-2 0  9994,2 53552  53.2176 106.6885 0003494 337.1019  88.2419 15.77222661  1556,6716.451,91.3,340.662,335.969,0.0
53552.0,STARLINK-4495,PAYLOAD,2022-08-29 14:00:01,15.7700025,0.0003423,53.2175,106.2735,348.4441,190.3044,-0.008133,-0.01197534,0.0,0 STARLINK-4495,1 53552U 22101AB  22241.58334491 -.01197534  00000-0 -81330-2 0  9993,2 53552  53.2175 106.2735 0003423 348.4441 190.3044 15.77000250  1301,6717.081999999999,91.313,341.247,336.648,0.0
53552.0,STARLINK-4495,PAYLOAD,2022-08-29 22:00:00,15.76120105,0.0004322,53.2175,104.6179,328.2829,303.4286,-0.0082949,-0.0117742,0.0,0 STARLINK-4495,1 53552U 22101AB  22241.91667824 -.01177420  00000-0 -82949-2 0  9998,2 53552  53.2175 104.6179 0004322 328.2829 303.4286 15.76120105  1306,6719.583000000001,91.364,344.352,338.543,0.0
53552.0,STARLINK-4495,PAYLOAD,2022-08-30 06:00:00,15.75261309,8.88e-05,53.2172,102.9615,49.4259,314.2004,-0.0087376,-0.01190092,0.0,0 STARLINK-4495,1 53552U 22101AB  22242.25001157 -.01190092  00000-0 -87376-2 0  9996,2 53552  53.2172 102.9615 0000888  49.4259 314.2004 15.75261309  1669,6722.025,91.413,344.487,343.293,0.0
53552.0,STARLINK-4495,PAYLOAD,2022-08-30 14:00:01,15.74348941,0.0001231999999999,53.2168,101.3073,58.956,35.5454,-0.0080804,-0.01070913,0.0,0 STARLINK-4495,1 53552U 22101AB  22242.58334491 -.01070913  00000-0 -80804-2 0  9990,2 53552  53.2168 101.3073 0001232  58.9560  35.5454 15.74348941  1309,6724.621,91.466,347.315,345.658,0.0
53552.0,STARLINK-4495,PAYLOAD,2022-08-30 20:00:01,15.73612815,0.0001296999999999,53.2174,100.0696,59.601000000000006,12.383,-0.0039116,-0.00525874,0.0,0 STARLINK-4495,1 53552U 22101AB  22242.83334491 -.00525874  00000-0 -39116-2 0  9998,2 53552  53.2174 100.0696 0001297  59.6010  12.3830 15.73612815  1766,6726.718000000003,91.509,349.456,347.711,0.0
53552.0,STARLINK-4495,PAYLOAD,2022-08-30 22:00:00,15.734500199999998,0.0001258,53.2172,99.6582,74.7327,109.606,-0.0025763,-0.00351249,0.0,0 STARLINK-4495,1 53552U 22101AB  22242.91667824 -.00351249  00000-0 -25763-2 0  9992,2 53552  53.2172  99.6582 0001258  74.7327 109.6060 15.73450020  1300,6727.182,91.519,349.894,348.201,0.0
53552.0,STARLINK-4495,PAYLOAD,2022-08-31 12:00:00,15.73211268,0.0001254,53.2165,96.7716,70.2955,179.8682,0.00044304,0.00062048,0.0,0 STARLINK-4495,1 53552U 22101AB  22243.50001157  .00062048  00000-0  44304-3 0  9996,2 53552  53.2165  96.7716 0001254  70.2955 179.8682 15.73211268  1862,6727.863,91.533,350.57199999999995,348.884,0.0
53552.0,STARLINK-4495,PAYLOAD,2022-08-31 14:00:01,15.73285449,0.0001334,53.2168,96.3586,69.4049,292.9819,-0.00074712,-0.00104561,0.0,0 STARLINK-4495,1 53552U 22101AB  22243.58334491 -.00104561  00000-0 -74712-3 0  9999,2 53552  53.2168  96.3586 0001334  69.4049 292.9819 15.73285449  1309,6727.651999999999,91.528,350.414,348.619,0.0
53552.0,STARLINK-4495,PAYLOAD,2022-08-31 20:00:01,15.73252817,0.0001158,53.2159,95.1255,58.7009,280.4106,-0.0011242,-0.00155854,0.0,0 STARLINK-4495,1 53552U 22101AB  22243.83334491 -.00155854  00000-0 -11242-2 0  9996,2 53552  53.2159  95.1255 0001158  58.7009 280.4106 15.73252817  1911,6727.745,91.53,350.389,348.831,0.0
53552.0,STARLINK-4495,PAYLOAD,2022-08-31 22:00:00,15.73201236,0.0001137999999999,53.216,94.7136,53.7553,37.6052,-0.0006368,-0.00089053,0.0,0 STARLINK-4495,1 53552U 22101AB  22243.91667824 -.00089053  00000-0 -63680-3 0  9995,2 53552  53.2160  94.7136 0001138  53.7553  37.6052 15.73201236  1307,6727.892,91.533,350.522,348.991,0.0
53552.0,STARLINK-4495,PAYLOAD,2022-09-01 04:00:01,15.73148278,9.990000000000004e-05,53.2154,93.4758,46.0417,22.0634,0.00011886,0.00016057,0.0,0 STARLINK-4495,1 53552U 22101AB  22244.16668981  .00016057  00000-0  11886-3 0  9991,2 53552  53.2154  93.4758 0000999  46.0417  22.0634 15.73148278  1977,6728.043000000002,91.536,350.58,349.236,0.0
53552.0,STARLINK-4495,PAYLOAD,2022-09-01 14:00:01,15.73169082,8.06e-05,53.216,91.4125,60.9067,208.2905,0.00037811,0.00052708,0.0,0 STARLINK-4495,1 53552U 22101AB  22244.58335648  .00052708  00000-0  37811-3 0  9997,2 53552  53.2160  91.4125 0000806  60.9067 208.2905 15.73169082  1305,6727.983,91.535,350.391,349.306,0.0
53552.0,STARLINK-4495,PAYLOAD,2022-09-01 20:00:01,15.73195968,9.61e-05,53.216,90.1772,47.9092,197.9703,0.00012175,0.00016498,0.0,0 STARLINK-4495,1 53552U 22101AB  22244.83335648  .00016498  00000-0  12175-3 0  9997,2 53552  53.2160  90.1772 0000961  47.9092 197.9703 15.73195968  2071,6727.906999999997,91.533,350.418,349.125,0.0
